[{"OBJECT_NAME":"COSMO-SKYMED 1","OBJECT_ID":"2007-023A","EPOCH":"2026-03-09T23:58:15.190752","MEAN_MOTION":14.96537365,"ECCENTRICITY":0.0001274,"INCLINATION":97.8873,"RA_OF_ASC_NODE":260.0329,"ARG_OF_PERICENTER":100.0972,"MEAN_ANOMALY":260.0392,"EPHEMERIS_TYPE":0,"CLASSIFICATION_TYPE":"U","NORAD_CAT_ID":31598,"ELEMENT_SET_NO":999,"REV_AT_EPOCH":1495,"BSTAR":0.00038631176,"MEAN_MOTION_DOT":4.334e-5,"MEAN_MOTION_DDOT":0},{"OBJECT_NAME":"PEGASUS DEB","OBJECT_ID":"1994-029AFW","EPOCH":"2026-02-14T00:16:04.061568","MEAN_MOTION":13.82605489,"ECCENTRICITY":0.05286769,"INCLINATION":82.1466,"RA_OF_ASC_NODE":310.1334,"ARG_OF_PERICENTER":353.1786,"MEAN_ANOMALY":6.236,"EPHEMERIS_TYPE":0,"CLASSIFICATION_TYPE":"U","NORAD_CAT_ID":39923,"ELEMENT_SET_NO":999,"REV_AT_EPOCH":3748,"BSTAR":0.0018125184,"MEAN_MOTION_DOT":5.863e-5,"MEAN_MOTION_DDOT":0}]
